{
  "type": "FeatureCollection",
  "features": [
    {
      "type": "Feature",
      "properties": {
        "norad_id": 30136,
        "name": "FENGYUN 1C DEB",
        "group": "fengyun-1c-debris",
        "lat": 6.518478372002394,
        "lon": -108.73471050263736,
        "alt_km": 826.4277583080257,
        "timestamp": "2025-12-26T08:37:54.854475+00:00",
        "meta_object_name": "FENGYUN 1C DEB",
        "meta_object_id": "1999-025SR",
        "meta_epoch": "2025-12-25T15:31:52.014720",
        "meta_mean_motion": 13.95341425,
        "meta_eccentricity": 0.0129376,
        "meta_inclination": 98.5564,
        "meta_ra_of_asc_node": 251.5894,
        "meta_arg_of_pericenter": 33.9061,
        "meta_mean_anomaly": 356.1897,
        "meta_ephemeris_type": 0,
        "meta_classification_type": "U",
        "meta_norad_cat_id": 30136,
        "meta_element_set_no": 999,
        "meta_rev_at_epoch": 96271,
        "meta_bstar": 0.000575,
        "meta_mean_motion_dot": 7.96e-06,
        "meta_mean_motion_ddot": 0,
        "tle_line1": "1 30136U 99025SR  25359.64712980  .00000796  00000+0  57500-3 0  9990",
        "tle_line2": "2 30136  98.5564 251.5894 0129376  33.9061 356.1897 13.95341425962717"
      },
      "geometry": {
        "type": "Point",
        "coordinates": [
          -108.73471050263736,
          6.518478372002394
        ]
      }
    },
    {
      "type": "Feature",
      "properties": {
        "norad_id": 30138,
        "name": "FENGYUN 1C DEB",
        "group": "fengyun-1c-debris",
        "lat": -46.65888143335977,
        "lon": -135.91911786744186,
        "alt_km": 840.4482727308941,
        "timestamp": "2025-12-26T08:37:54.854485+00:00",
        "meta_object_name": "FENGYUN 1C DEB",
        "meta_object_id": "1999-025ST",
        "meta_epoch": "2025-12-26T02:37:59.147904",
        "meta_mean_motion": 14.20069437,
        "meta_eccentricity": 0.0020218,
        "meta_inclination": 98.758,
        "meta_ra_of_asc_node": 53.235,
        "meta_arg_of_pericenter": 101.7773,
        "meta_mean_anomaly": 288.2412,
        "meta_ephemeris_type": 0,
        "meta_classification_type": "U",
        "meta_norad_cat_id": 30138,
        "meta_element_set_no": 999,
        "meta_rev_at_epoch": 97591,
        "meta_bstar": 0.0007113,
        "meta_mean_motion_dot": 1.474e-05,
        "meta_mean_motion_ddot": 0,
        "tle_line1": "1 30138U 99025ST  25360.10971236  .00001474  00000+0  71130-3 0  9995",
        "tle_line2": "2 30138  98.7580  53.2350 0020218 101.7773 288.2412 14.20069437975915"
      },
      "geometry": {
        "type": "Point",
        "coordinates": [
          -135.91911786744186,
          -46.65888143335977
        ]
      }
    },
    {
      "type": "Feature",
      "properties": {
        "norad_id": 30139,
        "name": "FENGYUN 1C DEB",
        "group": "fengyun-1c-debris",
        "lat": -14.810744481568129,
        "lon": -154.89907573183163,
        "alt_km": 889.9944867558779,
        "timestamp": "2025-12-26T08:37:54.854495+00:00",
        "meta_object_name": "FENGYUN 1C DEB",
        "meta_object_id": "1999-025SU",
        "meta_epoch": "2025-12-24T12:21:51.816384",
        "meta_mean_motion": 14.03692729,
        "meta_eccentricity": 0.013093,
        "meta_inclination": 98.3653,
        "meta_ra_of_asc_node": 201.1732,
        "meta_arg_of_pericenter": 256.9832,
        "meta_mean_anomaly": 131.165,
        "meta_ephemeris_type": 0,
        "meta_classification_type": "U",
        "meta_norad_cat_id": 30139,
        "meta_element_set_no": 999,
        "meta_rev_at_epoch": 96415,
        "meta_bstar": 0.0010888122,
        "meta_mean_motion_dot": 1.807e-05,
        "meta_mean_motion_ddot": 0,
        "tle_line1": "1 30139U 99025SU  25358.51518306  .00001807  00000+0  10888-2 0  9995",
        "tle_line2": "2 30139  98.3653 201.1732 0130930 256.9832 131.1650 14.03692729964154"
      },
      "geometry": {
        "type": "Point",
        "coordinates": [
          -154.89907573183163,
          -14.810744481568129
        ]
      }
    },
    {
      "type": "Feature",
      "properties": {
        "norad_id": 30140,
        "name": "FENGYUN 1C DEB",
        "group": "fengyun-1c-debris",
        "lat": 75.1970414123448,
        "lon": 27.203808118493207,
        "alt_km": 844.5188327950927,
        "timestamp": "2025-12-26T08:37:54.854505+00:00",
        "meta_object_name": "FENGYUN 1C DEB",
        "meta_object_id": "1999-025SV",
        "meta_epoch": "2025-12-25T16:05:23.244288",
        "meta_mean_motion": 14.20815628,
        "meta_eccentricity": 0.0041272,
        "meta_inclination": 98.8253,
        "meta_ra_of_asc_node": 62.523,
        "meta_arg_of_pericenter": 271.6739,
        "meta_mean_anomaly": 242.807,
        "meta_ephemeris_type": 0,
        "meta_classification_type": "U",
        "meta_norad_cat_id": 30140,
        "meta_element_set_no": 999,
        "meta_rev_at_epoch": 97327,
        "meta_bstar": 0.0012943,
        "meta_mean_motion_dot": 2.776e-05,
        "meta_mean_motion_ddot": 0,
        "tle_line1": "1 30140U 99025SV  25359.67040792  .00002776  00000+0  12943-2 0  9994",
        "tle_line2": "2 30140  98.8253  62.5230 0041272 271.6739 242.8070 14.20815628973272"
      },
      "geometry": {
        "type": "Point",
        "coordinates": [
          27.203808118493207,
          75.1970414123448
        ]
      }
    },
    {
      "type": "Feature",
      "properties": {
        "norad_id": 30141,
        "name": "FENGYUN 1C DEB",
        "group": "fengyun-1c-debris",
        "lat": -27.694795485248243,
        "lon": 98.33418803586376,
        "alt_km": 737.4008668291999,
        "timestamp": "2025-12-26T08:37:54.854515+00:00",
        "meta_object_name": "FENGYUN 1C DEB",
        "meta_object_id": "1999-025SW",
        "meta_epoch": "2025-12-26T01:03:37.501056",
        "meta_mean_motion": 14.51839454,
        "meta_eccentricity": 0.00192,
        "meta_inclination": 99.0145,
        "meta_ra_of_asc_node": 282.7757,
        "meta_arg_of_pericenter": 0.835,
        "meta_mean_anomaly": 359.2872,
        "meta_ephemeris_type": 0,
        "meta_classification_type": "U",
        "meta_norad_cat_id": 30141,
        "meta_element_set_no": 999,
        "meta_rev_at_epoch": 98437,
        "meta_bstar": 0.0027501,
        "meta_mean_motion_dot": 0.00011064,
        "meta_mean_motion_ddot": 0,
        "tle_line1": "1 30141U 99025SW  25360.04418404  .00011064  00000+0  27501-2 0  9993",
        "tle_line2": "2 30141  99.0145 282.7757 0019200   0.8350 359.2872 14.51839454984376"
      },
      "geometry": {
        "type": "Point",
        "coordinates": [
          98.33418803586376,
          -27.694795485248243
        ]
      }
    },
    {
      "type": "Feature",
      "properties": {
        "norad_id": 30142,
        "name": "FENGYUN 1C DEB",
        "group": "fengyun-1c-debris",
        "lat": -21.690448394730875,
        "lon": -107.32088864215422,
        "alt_km": 834.112528157184,
        "timestamp": "2025-12-26T08:37:54.854537+00:00",
        "meta_object_name": "FENGYUN 1C DEB",
        "meta_object_id": "1999-025SX",
        "meta_epoch": "2025-12-26T04:15:44.582112",
        "meta_mean_motion": 14.10557384,
        "meta_eccentricity": 0.0102346,
        "meta_inclination": 99.1274,
        "meta_ra_of_asc_node": 76.1606,
        "meta_arg_of_pericenter": 270.2185,
        "meta_mean_anomaly": 88.7258,
        "meta_ephemeris_type": 0,
        "meta_classification_type": "U",
        "meta_norad_cat_id": 30142,
        "meta_element_set_no": 999,
        "meta_rev_at_epoch": 96488,
        "meta_bstar": 0.0016048,
        "meta_mean_motion_dot": 2.957e-05,
        "meta_mean_motion_ddot": 0,
        "tle_line1": "1 30142U 99025SX  25360.17759933  .00002957  00000+0  16048-2 0  9998",
        "tle_line2": "2 30142  99.1274  76.1606 0102346 270.2185  88.7258 14.10557384964882"
      },
      "geometry": {
        "type": "Point",
        "coordinates": [
          -107.32088864215422,
          -21.690448394730875
        ]
      }
    },
    {
      "type": "Feature",
      "properties": {
        "norad_id": 30143,
        "name": "FENGYUN 1C DEB",
        "group": "fengyun-1c-debris",
        "lat": 72.54422975540571,
        "lon": 32.36600759208155,
        "alt_km": 940.9647039177398,
        "timestamp": "2025-12-26T08:37:54.854548+00:00",
        "meta_object_name": "FENGYUN 1C DEB",
        "meta_object_id": "1999-025SY",
        "meta_epoch": "2025-12-26T00:11:42.063072",
        "meta_mean_motion": 14.02627294,
        "meta_eccentricity": 0.0103399,
        "meta_inclination": 98.7346,
        "meta_ra_of_asc_node": 182.7603,
        "meta_arg_of_pericenter": 253.8176,
        "meta_mean_anomaly": 237.8734,
        "meta_ephemeris_type": 0,
        "meta_classification_type": "U",
        "meta_norad_cat_id": 30143,
        "meta_element_set_no": 999,
        "meta_rev_at_epoch": 96405,
        "meta_bstar": 0.0010103,
        "meta_mean_motion_dot": 1.59e-05,
        "meta_mean_motion_ddot": 0,
        "tle_line1": "1 30143U 99025SY  25360.00812573  .00001590  00000+0  10103-2 0  9999",
        "tle_line2": "2 30143  98.7346 182.7603 0103399 253.8176 237.8734 14.02627294964059"
      },
      "geometry": {
        "type": "Point",
        "coordinates": [
          32.36600759208155,
          72.54422975540571
        ]
      }
    }
  ]
}